Results
*******************************************************************************
 Revised: Jan 26, 2022            Hyperion / (Saturn)                       607
                        http://ssd.jpl.nasa.gov/?sat_phys_par
                          http://ssd.jpl.nasa.gov/?sat_elem

 SATELLITE PHYSICAL PROPERTIES:
  Mean Radius (km)        = 133    +- 8    Density (g/cm^3)  =  0.569 +- 0.108
  Mass (10^19 kg)         =   1.08 +- 0.52 Geometric Albedo  =  0.25
  GM (km^3/s^2)           = 0.3705 +- 0.02 V(1,0)            = +4.8 

 SATELLITE ORBITAL DATA (mean values with respect to local Laplace plane):
  Semi-major axis, a (km) = 1500.933(10^3) Orbital period    = 21.28 d
  Eccentricity, e         = 0.0232         Rotational period = Chaotic
  Inclination, i  (deg)   = 0.615
*******************************************************************************


*******************************************************************************
Ephemeris / API_USER Wed Apr 22 07:19:17 2026 Pasadena, USA      / Horizons    
*******************************************************************************
Target body name: Hyperion (607)                  {source: sat441l}
Center body name: Earth (399)                     {source: DE441}
Center-site name: GEOCENTRIC
*******************************************************************************
Start time      : A.D. 2020-Jan-01 00:00:00.0000 UT      
Stop  time      : A.D. 2020-Dec-20 00:00:00.0000 UT      
Step-size       : 1440 minutes
*******************************************************************************
Target pole/equ : undefined
Target radii    : 180.1, 133.0, 102.7 km          {Equator_a, b, pole_c}       
Center geodetic : 0.0, 0.0, -6378.137             {E-lon(deg),Lat(deg),Alt(km)}
Center cylindric: 0.0, 0.0, 0.0                   {E-lon(deg),Dxy(km),Dz(km)}
Center pole/equ : ITRF93                          {East-longitude positive}
Center radii    : 6378.137, 6378.137, 6356.752 km {Equator_a, b, pole_c}       
Target primary  : Saturn
Vis. interferer : MOON (R_eq= 1737.400) km        {source: DE441}
Rel. light bend : Sun                             {source: DE441}
Rel. lght bnd GM: 1.3271E+11 km^3/s^2                                          
Atmos refraction: NO (AIRLESS)
RA format       : HMS
Time format     : CAL 
Calendar mode   : Mixed Julian/Gregorian
EOP file        : eop.260421.p260718                                           
EOP coverage    : DATA-BASED 1962-JAN-20 TO 2026-APR-21. PREDICTS-> 2026-JUL-17
Units conversion: 1 au= 149597870.700 km, c= 299792.458 km/s, 1 day= 86400.0 s 
Table cut-offs 1: Elevation (-90.0deg=NO ),Airmass (>38.000=NO), Daylight (NO )
Table cut-offs 2: Solar elongation (  0.0,180.0=NO ),Local Hour Angle( 0.0=NO )
Table cut-offs 3: RA/DEC angular rate (     0.0=NO )                           
**************************************************************************************************************************
 Date__(UT)__HR:MN     R.A._____(ICRF)_____DEC    APmag   S-brt             delta      deldot     S-O-T /r     S-T-O  Cnst
**************************************************************************************************************************
$$SOE
 2020-Jan-01 00:00     19 31 07.31 -21 44 11.4   15.011   8.024  10.9895690326385   8.5902786   11.3397 /T    1.1092   Sgr
 2020-Jan-02 00:00     19 31 35.42 -21 42 52.6   15.012   8.024  10.9945881895004   8.7575614   10.4311 /T    1.0213   Sgr
 2020-Jan-03 00:00     19 32 04.38 -21 41 32.2   15.014   8.025  10.9996441339186   8.7137394    9.5260 /T    0.9335   Sgr
 2020-Jan-04 00:00     19 32 34.27 -21 40 11.5   15.015   8.025  11.0046076788814   8.4328874    8.6246 /T    0.8458   Sgr
 2020-Jan-05 00:00     19 33 05.13 -21 38 51.7   15.017   8.026  11.0093332827067   7.8842597    7.7269 /T    0.7584   Sgr
 2020-Jan-06 00:00     19 33 36.96 -21 37 34.1   15.018   8.026  11.0136565291080   7.0338140    6.8329 /T    0.6711   Sgr
 2020-Jan-07 00:00     19 34 09.73 -21 36 20.0   15.019   8.027  11.0173937436923   5.8505110    5.9425 /T    0.5842   Sgr
 2020-Jan-08 00:00     19 34 43.30 -21 35 10.8   15.020   8.027  11.0203473922431   4.3206614    5.0550 /T    0.4974   Sgr
 2020-Jan-09 00:00     19 35 17.43 -21 34 07.7   15.020   8.027  11.0223228847428   2.4733458    4.1695 /T    0.4109   Sgr
 2020-Jan-10 00:00     19 35 51.79 -21 33 11.2   15.021   8.027  11.0231628119463   0.4137727    3.2847 /T    0.3245   Sgr
 2020-Jan-11 00:00     19 36 25.89 -21 32 21.3   15.020   8.027  11.0227985040747  -1.6552180    2.3986 /T    0.2380   Sgr
 2020-Jan-12 00:00     19 36 59.25 -21 31 36.5   15.019   8.026  11.0213017858259  -3.4603132    1.5096 /T    0.1512   Sgr
 2020-Jan-13 00:00     19 37 31.43 -21 30 54.5   15.018   8.026  11.0189013942450  -4.7509414    0.6163 /T    0.0640   Sgr
 2020-Jan-14 00:00     19 38 02.21 -21 30 12.3   15.017   8.025  11.0159373160069  -5.4063690    0.2848 /L    0.0234   Sgr
 2020-Jan-15 00:00     19 38 31.60 -21 29 27.2   15.016   8.024  11.0127711265216  -5.4695921    1.1878 /L    0.1119   Sgr
 2020-Jan-16 00:00     19 38 59.80 -21 28 37.1   15.015   8.024  11.0097043977219  -5.0915338    2.0960 /L    0.2008   Sgr
 2020-Jan-17 00:00     19 39 27.12 -21 27 41.0   15.014   8.023  11.0069405284401  -4.4491059    3.0073 /L    0.2901   Sgr
 2020-Jan-18 00:00     19 39 53.89 -21 26 38.5   15.013   8.023  11.0045868375618  -3.6928046    3.9204 /L    0.3795   Sgr
 2020-Jan-19 00:00     19 40 20.42 -21 25 30.1   15.012   8.023  11.0026757212711  -2.9312903    4.8341 /L    0.4690   Sgr
 2020-Jan-20 00:00     19 40 46.96 -21 24 16.2   15.012   8.023  11.0011878731524  -2.2366407    5.7474 /L    0.5584   Sgr
 2020-Jan-21 00:00     19 41 13.74 -21 22 57.6   15.012   8.023  11.0000702136547  -1.6556643    6.6595 /L    0.6476   Sgr
 2020-Jan-22 00:00     19 41 40.95 -21 21 35.3   15.012   8.023  10.9992473221120  -1.2204833    7.5696 /L    0.7364   Sgr
 2020-Jan-23 00:00     19 42 08.73 -21 20 10.1   15.012   8.024  10.9986274765753  -0.9565486    8.4772 /L    0.8248   Sgr
 2020-Jan-24 00:00     19 42 37.20 -21 18 43.3   15.013   8.024  10.9981047811681  -0.8882644    9.3820 /L    0.9126   Sgr
 2020-Jan-25 00:00     19 43 06.46 -21 17 15.7   15.013   8.024  10.9975586054011  -1.0427458   10.2834 /L    0.9999   Sgr
 2020-Jan-26 00:00     19 43 36.57 -21 15 48.7   15.013   8.025  10.9968513315136  -1.4518923   11.1814 /L    1.0866   Sgr
 2020-Jan-27 00:00     19 44 07.58 -21 14 23.6   15.014   8.025  10.9958255092355  -2.1521965   12.0758 /L    1.1727   Sgr
 2020-Jan-28 00:00     19 44 39.45 -21 13 01.5   15.014   8.026  10.9943021427765  -3.1806091   12.9667 /L    1.2582   Sgr
 2020-Jan-29 00:00     19 45 12.10 -21 11 44.0   15.014   8.026  10.9920832351538  -4.5632885   13.8546 /L    1.3431   Sgr
 2020-Jan-30 00:00     19 45 45.36 -21 10 32.3   15.013   8.026  10.9889638354451  -6.2933885   14.7401 /L    1.4275   Sgr
 2020-Jan-31 00:00     19 46 18.90 -21 09 27.3   15.013   8.026  10.9847603477847  -8.2976905   15.6245 /L    1.5115   Sgr
 2020-Feb-01 00:00     19 46 52.30 -21 08 29.3   15.011   8.026  10.9793585814630 -10.4056466   16.5094 /L    1.5952   Sgr
 2020-Feb-02 00:00     19 47 25.06 -21 07 37.3   15.010   8.026  10.9727710718594 -12.3552501   17.3967 /L    1.6789   Sgr
 2020-Feb-03 00:00     19 47 56.68 -21 06 49.4   15.008   8.025  10.9651717293273 -13.8677754   18.2882 /L    1.7627   Sgr
 2020-Feb-04 00:00     19 48 26.86 -21 06 02.7   15.005   8.024  10.9568721148968 -14.7634708   19.1850 /L    1.8466   Sgr
 2020-Feb-05 00:00     19 48 55.50 -21 05 14.4   15.003   8.024  10.9482405322817 -15.0285061   20.0871 /L    1.9307   Sgr
 2020-Feb-06 00:00     19 49 22.76 -21 04 22.3   15.001   8.023  10.9396108611348 -14.7840722   20.9939 /L    2.0149   Sgr
 2020-Feb-07 00:00     19 49 48.89 -21 03 25.0   14.998   8.023  10.9312276993935 -14.2043460   21.9044 /L    2.0990   Sgr
 2020-Feb-08 00:00     19 50 14.23 -21 02 21.8   14.996   8.022  10.9232364174908 -13.4511663   22.8172 /L    2.1827   Sgr
 2020-Feb-09 00:00     19 50 39.08 -21 01 13.0   14.995   8.022  10.9156996525065 -12.6475448   23.7312 /L    2.2660   Sgr
 2020-Feb-10 00:00     19 51 03.73 -20 59 58.9   14.993   8.022  10.9086205539539 -11.8777024   24.6453 /L    2.3487   Sgr
 2020-Feb-11 00:00     19 51 28.41 -20 58 40.2   14.992   8.022  10.9019624794825 -11.1971208   25.5587 /L    2.4307   Sgr
 2020-Feb-12 00:00     19 51 53.33 -20 57 17.8   14.991   8.022  10.8956623693752 -10.6434679   26.4707 /L    2.5118   Sgr
 2020-Feb-13 00:00     19 52 18.65 -20 55 52.5   14.990   8.022  10.8896383916115 -10.2453293   27.3806 /L    2.5921   Sgr
 2020-Feb-14 00:00     19 52 44.51 -20 54 25.4   14.989   8.023  10.8837932527651 -10.0285414   28.2881 /L    2.6715   Sgr
 2020-Feb-15 00:00     19 53 11.03 -20 52 57.5   14.989   8.023  10.8780144367742 -10.0205770   29.1927 /L    2.7499   Sgr
 2020-Feb-16 00:00     19 53 38.28 -20 51 29.9   14.988   8.024  10.8721723855972 -10.2533002   30.0941 /L    2.8274   Sgr
 2020-Feb-17 00:00     19 54 06.33 -20 50 03.9   14.987   8.024  10.8661176095370 -10.7637973   30.9922 /L    2.9038   Sgr
 2020-Feb-18 00:00     19 54 35.19 -20 48 40.8   14.987   8.025  10.8596781549609 -11.5919778   31.8871 /L    2.9794   Sgr
 2020-Feb-19 00:00     19 55 04.80 -20 47 22.0   14.985   8.025  10.8526600168488 -12.7721924   32.7789 /L    3.0541   Sgr
 2020-Feb-20 00:00     19 55 35.03 -20 46 08.8   14.984   8.025  10.8448550544113 -14.3149540   33.6683 /L    3.1280   Sgr
 2020-Feb-21 00:00     19 56 05.61 -20 45 02.3   14.982   8.025  10.8360630269583 -16.1764070   34.5563 /L    3.2012   Sgr
 2020-Feb-22 00:00     19 56 36.15 -20 44 03.1   14.980   8.025  10.8261334027442 -18.2231219   35.4444 /L    3.2739   Sgr
 2020-Feb-23 00:00     19 57 06.16 -20 43 10.7   14.978   8.025  10.8150226585517 -20.2201420   36.3345 /L    3.3462   Sgr
 2020-Feb-24 00:00     19 57 35.12 -20 42 23.6   14.975   8.024  10.8028421201709 -21.8807610   37.2285 /L    3.4183   Sgr
